EUTELSAT 21B            
1 38992U 12062B   25307.55669921  .00000143  00000+0  00000+0 0  9998
2 38992   0.0756  20.4933 0003043 215.4594  29.1442  1.00273043 47566
EUTELSAT 70B            
1 39020U 12069A   25308.12167640 -.00000031  00000+0  00000+0 0  9990
2 39020   0.0668   3.0865 0004343 218.3020 296.5528  1.00271772 47250
EUTELSAT 117 WEST A     
1 39122U 13012A   25308.20241683  .00000000  00000+0  00000+0 0  9996
2 39122   0.0317  26.9207 0003341 209.9630 122.9163  1.00271262 46179
EUTELSAT 7B             
1 39163U 13022A   25308.10910965  .00000061  00000+0  00000+0 0  9994
2 39163   0.0723   6.4085 0002943 299.4859 144.0257  1.00272230 45709
EXPRESS-AT1             
1 39612U 14010A   25307.86989248  .00000091  00000+0  00000+0 0  9996
2 39612   0.0128 260.9206 0000322 258.2063 253.4447  1.00269219 42557
EXPRESS-AT2             
1 39613U 14010B   25307.63585088 -.00000268  00000+0  00000+0 0  9993
2 39613   0.0136 261.2168 0001811  27.0417 123.6701  1.00273980 42233
EUTELSAT 3B             
1 39773U 14030A   25308.10832965  .00000033  00000+0  00000+0 0  9993
2 39773   0.0766  31.8667 0004650 184.4328 229.4045  1.00271159 41812
EUTELSAT 115 WEST B     
1 40425U 15010B   25307.29982351 -.00000013  00000+0  00000+0 0  9991
2 40425   0.0137 106.0173 0000326 302.3762 347.4795  1.00272417 39128
